#aV2015  1 27  0  0  0.00000000     288 DD+AD WGS84 FIT  NGA
## 1829 172800.00000000   300.00000000 57049 0.0000000000000
+   31     1  2  3  4  5  6  7  8  9 10 11 12 13 14 15 16 17
+         18 19 20 21 22 23 24 25 27 28 29 30 31 32  0  0  0
+          0  0  0  0  0  0  0  0  0  0  0  0  0  0  0  0  0
+          0  0  0  0  0  0  0  0  0  0  0  0  0  0  0  0  0
+          0  0  0  0  0  0  0  0  0  0  0  0  0  0  0  0  0
++         2  2  2  2  2  2  2  2  2  2  2  2  2  2  2  2  2
++         2  2  2  2  2  2  2  2  2  2  2  2  2  2  0  0  0
++         0  0  0  0  0  0  0  0  0  0  0  0  0  0  0  0  0
++         0  0  0  0  0  0  0  0  0  0  0  0  0  0  0  0  0
++         0  0  0  0  0  0  0  0  0  0  0  0  0  0  0  0  0
%c cc cc ccc ccc cccc cccc cccc cccc ccccc ccccc ccccc ccccc
%c cc cc ccc ccc cccc cccc cccc cccc ccccc ccccc ccccc ccccc
%f  0.0000000  0.000000000  0.00000000000  0.000000000000000
%f  0.0000000  0.000000000  0.00000000000  0.000000000000000
%i    0    0    0    0      0      0      0      0         0
%i    0    0    0    0      0      0      0      0         0
/*      NGA, ST. LOUIS,MO.                                  
/*   EPHEMERIS COMPUTED FROM  1 DAYS OF DATA                
/*   EPOCHA SMOOTHER                                       
/* CCCCCCCCCCCCCCCCCCCCCCCCCCCCCCCCCCCCCCCCCCCCCCCCCCCCCCCCC
*  2015  1 27 23 10  0.00000000
P  1 -21756.334491 -13705.756136  -7046.055531     -9.684107                    
V  1   9140.179140    877.561275 -29977.851575      0.004332                    
P  2   1032.695450  16646.408083  21091.216447    544.442314                    
V  2 -24729.262030  -8030.778214   7198.886264      0.022966                    
P  3 -13122.918714 -18065.347617  14354.050863    175.410985                    
V  3   -753.997784 -18356.790093 -23842.868674      0.230513                    
P  4 -13849.107598 -17059.197702 -15418.848539     -6.275383                    
V  4  18571.409378   4466.262564 -21811.235125     -0.006012                    
P  5   2120.129206  26190.161199   3101.407165   -287.003735                    
V  5  -4019.651679  -3415.182723  31217.633086      0.051674                    
P  6 -14495.286081   9508.030890  20110.436101     64.167686                    
V  6 -23521.663499 -10046.583516 -12214.383831      0.116720                    
P  7 -25387.183187  -6466.455284  -5316.081684    435.297281                    
V  7  -5490.324246  -4538.167914  30816.762838      0.032545                    
P  8   -232.670891 -15983.296920  21528.102823     17.316829                    
V  8  23548.914917  12466.267049   8994.006948      0.001686                    
P  9 -21158.213008   3018.377321  15767.574435    -68.614771                    
V  9  14233.371126 -14246.454017  21804.544575     -0.122155                    
P 10 -10633.803527  16054.596978  17728.656711   -160.693364                    
V 10  -5722.041306 -22898.062548  17364.509402     -0.017181                    
P 11 -17972.673159 -12873.413532 -15344.718732   -553.840663                    
V 11  18841.850158  -2587.051178 -20457.229382     -0.026340                    
P 12  10562.393904  21157.108924  12235.966968    264.773932                    
V 12    338.753668  15603.205046 -26882.240681      0.030462                    
P 13  -5762.346006  18525.057877 -18346.898523    -82.806221                    
V 13 -19896.050226  11414.511135  17801.727172     -0.035235                    
P 14  21382.005969 -15608.604083    896.169247     92.826797                    
V 14   2264.926810   1742.530975 -31974.303650     -0.035576                    
P 15   9057.199661  13063.496621 -21343.146922   -228.858444                    
V 15 -20467.138372  17667.085834   2453.907684     -0.022324                    
P 16   -459.748119 -26155.121476   3163.349673   -161.353999                    
V 16   2588.586631   3888.471095  32295.858735      0.032257                    
P 17 -21724.780848  14976.820602  -1374.360404   -152.528232                    
V 17     84.212419  -3409.593013 -32069.036354     -0.022991                    
P 18  15780.787580  -1117.975070 -20875.302764    375.361501                    
V 18   4754.593538  27333.703824   1774.372388      0.027133                    
P 19  -3024.739542 -15639.096054 -21350.956208   -498.318842                    
V 19  22697.204936 -14215.344367   7701.986307     -0.014860                    
P 20 -16228.410380   -491.574711  20873.914330    283.378828                    
V 20  -5570.424107 -26436.328516  -4818.347192      0.041502                    
P 21  24871.132412   2023.968725  -8972.411572   -410.295977                    
V 21  10427.253677   7194.620726  27997.226159     -0.041922                    
P 22  11409.869469 -15136.138937 -18323.731936    311.945487                    
V 22   6252.101031  23173.017860 -15242.762339      0.040693                    
P 23 -15417.600362  -6702.065734  20781.446593    -84.714088                    
V 23  19859.559367 -16853.505108   8933.757321     -0.026451                    
P 24  19883.787548  14704.975523  -9897.571172    -42.475885                    
V 24 -12619.783164  -1871.488686 -28066.613679     -0.005784                    
P 25  15078.018512   8810.893195  19979.779463      0.381657                    
V 25   3197.199146  25265.313298 -13348.934227     -0.025942                    
P 27   7191.533926 -20036.020462 -15836.057390     47.349411                    
V 27  16754.453811 -11289.331441  21991.956923      0.026773                    
P 28 -12647.797105   9935.939683 -20491.837971    415.463704                    
V 28  -3327.564633 -27225.048326 -10918.396555      0.026651                    
P 29  19621.501603    803.656645  17893.372093    588.570416                    
V 29 -17450.914997  14505.287190  18555.312846      0.022562                    
P 30 -22023.647665   1187.267438 -14834.089326    -86.093268                    
V 30 -16137.579098  -9917.054349  23120.704664      0.005636                    
P 31  12269.477577 -10475.487065  21305.052333    324.583975                    
V 31  24376.419914  10665.295308  -8524.137684     -0.008049                    
P 32  -4484.742624 -26259.691872   3403.536319   -237.563179                    
V 32   2419.727367  -4468.345073 -30701.705625      0.089081                    
EOF
